IRIDIUM 155             
1 43573U 18061E   25089.80192623  .00000101  00000+0  29131-4 0  9994
2 43573  86.3945 241.9077 0001885  88.4676 271.6736 14.34217359349805
IRIDIUM 154             
1 43574U 18061F   25089.85266891  .00000028  00000+0  29720-5 0  9992
2 43574  86.3953 241.9982 0002113  95.3406 264.8030 14.34217082349863
IRIDIUM 163             
1 43575U 18061G   25089.83363972  .00000440  00000+0  14993-3 0  9991
2 43575  86.3948 241.9355 0002150  91.2166 268.9276 14.34215224349831
IRIDIUM 156             
1 43576U 18061H   25089.80826948  .00000138  00000+0  42249-4 0  9996
2 43576  86.3947 241.9529 0001713  89.6972 270.4420 14.34215992349824
IRIDIUM 164             
1 43577U 18061J   25089.85901081  .00000066  00000+0  16427-4 0  9993
2 43577  86.3950 241.9649 0002032 101.4725 258.6699 14.34214955349875
IRIDIUM 159             
1 43578U 18061K   25089.82729401  .00000515  00000+0  17670-3 0  9994
2 43578  86.3947 241.9242 0002214  95.7688 264.3761 14.34220153349833
IRIDIUM 180             
1 43922U 19002A   25089.75702760  .00000279  00000+0  92437-4 0  9996
2 43922  86.4043 178.9192 0002209  93.7698 266.3751 14.34215516325438
IRIDIUM 176             
1 43923U 19002B   25089.80564544  .00001732  00000+0  27085-3 0  9990
2 43923  86.6166 178.8987 0002715  83.0336 277.1189 14.72243726334016
IRIDIUM 168             
1 43924U 19002C   25089.68091509  .00000212  00000+0  68519-4 0  9993
2 43924  86.4046 179.0155 0002225  96.9537 263.1912 14.34217466325406
IRIDIUM 173             
1 43925U 19002D   25089.73799362  .00000397  00000+0  13481-3 0  9993
2 43925  86.4045 178.8991 0002181  91.4724 268.6721 14.34213809325393
IRIDIUM 169             
1 43926U 19002E   25089.83421853  .00000744  00000+0  23676-3 0  9995
2 43926  86.4279 210.4232 0002011  53.9971 306.1414 14.38618628326483
IRIDIUM 172             
1 43927U 19002F   25089.80142602  .00000237  00000+0  77411-4 0  9999
2 43927  86.4043 178.8792 0002508  96.7044 263.4437 14.34216816325419
IRIDIUM 175             
1 43928U 19002G   25089.66452597  .00001730  00000+0  27044-3 0  9996
2 43928  86.1499 135.9682 0001307  83.6890 276.4475 14.72246575333988
IRIDIUM 171             
1 43929U 19002H   25089.78239654  .00000512  00000+0  17585-3 0  9993
2 43929  86.4051 179.1439 0001953 105.6146 254.5265 14.34218944325401
IRIDIUM 170             
1 43930U 19002J   25089.74385636  .00002088  00000+0  32717-3 0  9997
2 43930  86.6166 178.9295 0001893  94.3114 265.8319 14.72252968334019
IRIDIUM 167             
1 43931U 19002K   25089.77605341  .00000361  00000+0  12172-3 0  9994
2 43931  86.4042 178.9083 0001677  99.1924 260.9462 14.34216769325403
IRIDIUM 181             
1 56726U 23068S   25089.81433926  .00000887  00000+0  25752-3 0  9991
2 56726  86.4488 241.9514 0001855 109.1648 250.9754 14.43292336 98488
IRIDIUM 177             
1 56727U 23068T   25089.72084453  .00002907  00000+0  37900-3 0  9992
2 56727  86.2036 179.3470 0001853 110.4461 249.6959 14.80244891100768
IRIDIUM 174             
1 56728U 23068U   25089.78304051  .00002855  00000+0  37234-3 0  9990
2 56728  86.2041 179.4435 0002760 100.3535 259.7997 14.80223325100779
IRIDIUM 178             
1 56729U 23068V   25089.84515202  .00002993  00000+0  39028-3 0  9996
2 56729  86.6598 210.4994 0002160 105.7073 254.4387 14.80242909100782
IRIDIUM 179             
1 56730U 23068W   25089.83984334  .00002926  00000+0  38186-3 0  9993
2 56730  86.6821 218.1394 0002178  82.0319 278.1150 14.80209017100785
